GSAT0101 (GALILEO-PFM)  
1 37846U 11060A   24297.59875901 -.00000106  00000+0  00000+0 0  9990
2 37846  57.1229 358.0628 0001338 291.2804  68.7586  1.70475804 80867
GSAT0102 (GALILEO-FM2)  
1 37847U 11060B   24300.45980339 -.00000102  00000+0  00000+0 0  9999
2 37847  57.1231 357.9855 0003062 295.7720  65.6006  1.70475481 81048
GSAT0103 (GALILEO-FM3)  
1 38857U 12055A   24299.39795119  .00000057  00000+0  00000+0 0  9994
2 38857  55.4667 118.0249 0001882 254.6194 105.4022  1.70473648 74781
GSAT0201 (GALILEO 5)    
1 40128U 14050A   24297.90629204 -.00000049  00000+0  00000+0 0  9993
2 40128  49.5272 297.8809 1614401 156.2775 212.0976  1.85519582 67160
GSAT0202 (GALILEO 6)    
1 40129U 14050B   24299.78107056 -.00000054  00000+0  00000+0 0  9994
2 40129  49.5416 296.8839 1613730 157.1427 210.9464  1.85520325 69361
GSAT0203 (GALILEO 7)    
1 40544U 15017A   24298.55084031 -.00000106  00000+0  00000+0 0  9998
2 40544  56.9175 357.9535 0005535 251.0309 108.9621  1.70476196 58963
GSAT0204 (GALILEO 8)    
1 40545U 15017B   24299.97856609 -.00000103  00000+0  00000+0 0  9991
2 40545  56.9234 357.9306 0005503 240.6949 119.3044  1.70475824 22036
GSAT0205 (GALILEO 9)    
1 40889U 15045A   24296.22725989 -.00000014  00000+0  00000+0 0  9995
2 40889  55.1652 238.2608 0004325  20.5126 339.4922  1.70472927 56736
GSAT0206 (GALILEO 10)   
1 40890U 15045B   24299.96742170 -.00000035  00000+0  00000+0 0  9995
2 40890  55.1617 238.1530 0002692   5.3840 354.6025  1.70473017 56825
GSAT0209 (GALILEO 12)   
1 41174U 15079A   24300.13709951  .00000061  00000+0  00000+0 0  9998
2 41174  55.4882 117.7150 0002098 358.7108   1.3324  1.70474402 54566
GSAT0208 (GALILEO 11)   
1 41175U 15079B   24298.01060723  .00000048  00000+0  00000+0 0  9994
2 41175  55.4825 117.7711 0001657  14.7220 345.3207  1.70474158 54942
GSAT0211 (GALILEO 14)   
1 41549U 16030A   24299.30655186 -.00000033  00000+0  00000+0 0  9998
2 41549  55.3104 238.1964 0003577 337.0093  22.9599  1.70473053 52444
GSAT0210 (GALILEO 13)   
1 41550U 16030B   24299.56461599 -.00000034  00000+0  00000+0 0  9992
2 41550  55.3099 238.1876 0002699 247.9067 112.0493  1.70473406 52429
GSAT0207 (GALILEO 15)   
1 41859U 16069A   24298.67089029  .00000052  00000+0  00000+0 0  9990
2 41859  55.1509 117.7253 0001744 326.2108  33.8179  1.70474265 49165
GSAT0212 (GALILEO 16)   
1 41860U 16069B   24297.93846072  .00000047  00000+0  00000+0 0  9993
2 41860  55.1484 117.7417 0002196  37.2122 322.8408  1.70474434 49409
GSAT0213 (GALILEO 17)   
1 41861U 16069C   24296.54706279  .00000040  00000+0  00000+0 0  9997
2 41861  55.1495 117.7873 0001626 273.9779  86.0391  1.70474699 49247
GSAT0214 (GALILEO 18)   
1 41862U 16069D   24300.21194543  .00000061  00000+0  00000+0 0  9996
2 41862  55.1498 117.6791 0000706 276.9493  83.0866  1.70474532 49434
GSAT0215 (GALILEO 19)   
1 43055U 17079A   24297.76846104 -.00000024  00000+0  00000+0 0  9996
2 43055  55.2886 238.0587 0002401 285.7883  74.1736  1.70473729 42738
GSAT0216 (GALILEO 20)   
1 43056U 17079B   24299.23322717 -.00000033  00000+0  00000+0 0  9990
2 43056  55.2882 238.0183 0003893 289.6404  70.3032  1.70473882 42743
GSAT0217 (GALILEO 21)   
1 43057U 17079C   24300.04033151 -.00000036  00000+0  00000+0 0  9997
2 43057  55.2855 237.9946 0003487 307.6883  52.2637  1.70473794 42775
GSAT0218 (GALILEO 22)   
1 43058U 17079D   24298.50063806 -.00000029  00000+0  00000+0 0  9997
2 43058  55.2864 238.0347 0004306 283.8380  76.1013  1.70473809 42771
GSAT0221 (GALILEO 25)   
1 43564U 18060A   24299.57500902 -.00000104  00000+0  00000+0 0  9995
2 43564  57.2973 357.9589 0005029 265.0207  94.9760  1.70476190 38945
GSAT0222 (GALILEO 26)   
1 43565U 18060B   24300.38029899 -.00000102  00000+0  00000+0 0  9997
2 43565  57.3010 357.9393 0005340 241.8238 118.1776  1.70475971 39004
GSAT0219 (GALILEO 23)   
1 43566U 18060C   24295.32273194 -.00000102  00000+0  00000+0 0  9994
2 43566  57.3005 358.0776 0004371 267.3968  92.6098  1.70476147 38897
GSAT0220 (GALILEO 24)   
1 43567U 18060D   24299.64953988 -.00000103  00000+0  00000+0 0  9991
2 43567  57.3000 357.9605 0004495 264.8855  95.1174  1.70476267 38959
GSAT0223 (GALILEO 27)   
1 49809U 21116A   24292.46719778 -.00000093  00000+0  00000+0 0  9990
2 49809  57.2911 358.0484 0004054 216.5220 146.0340  1.70475858 17843
GSAT0224 (GALILEO 28)   
1 49810U 21116B   24297.56974373 -.00000106  00000+0  00000+0 0  9997
2 49810  57.2913 357.9086 0003422 219.7636 146.8608  1.70476279 17941
GSAT0225 (GALILEO 29)   
1 59598U 24079A   24299.33998476  .00000055  00000+0  00000+0 0  9991
2 59598  54.7769 117.8651 0002457 156.2691 207.6912  1.70474696  3096
GSAT0227 (GALILEO 30)   
1 59600U 24079C   24299.51692837  .00000056  00000+0  00000+0 0  9998
2 59600  54.7629 117.8610 0003838 112.8877 247.1954  1.70474581  3142
GSAT0232 (GALILEO 32)   
1 61182U 24167A   24299.27458951 -.00000032  00000+0  00000+0 0  9999
2 61182  55.3988 237.7602 0016499 274.5925  85.2057  1.73177029   642
GSAT0226 (GALILEO 31)   
1 61183U 24167B   24299.03333609 -.00000031  00000+0  00000+0 0  9995
2 61183  55.3958 237.7869 0033072  97.7102 262.6522  1.71381440   621
